#dP2024  4  2  0  0  0.00000000      96 __u+U IGS20 EXT  IAC
## 2308 172800.00000000   900.00000000 60402 0.0000000000000
+  120   C06C07C08C09C10C11C12C13C14C16C19C20C21C22C23C24C25
+        C26C27C28C29C30C32C33C34C35C36C37C38C39C40C41C42C43
+        C44C45C46E02E03E04E05E07E08E09E10E11E12E13E14E15E18
+        E19E21E24E25E26E27E30E31E33E34E36G01G02G03G04G05G06
+        G07G08G09G10G11G12G13G14G15G16G17G18G19G20G21G22G23
+        G24G25G26G27G28G29G30G31G32J02J03J04R01R02R03R04R05
+        R07R08R09R11R12R13R14R15R16R17R18R19R20R21R22R24R25
+        R26  0  0  0  0  0  0  0  0  0  0  0  0  0  0  0  0
++        11 10  8 11 10 10  9 10  9 10  8  8  8  8  8  8  9
++         9  7  8  8  8  9  9  8  8  8  9 10 11 11  8 10  8
++         9  8  8  9  8  8  8  8  7  8  9  9  9  8  8  8  8
++         8  8  9  8  9  8  8  9  9  8  7  9  7  8  8  8  9
++         9  7  8  8 10  8  8  8  7  8  7  7  8  8  8  7  7
++         7  8  8  8  8  8  7  8  8  9  9  0  8  7  8  9  8
++         8  9  8  8  8  8  8  9  9  8  9  8  9  8  8  8  7
++         9  0  0  0  0  0  0  0  0  0  0  0  0  0  0  0  0
%c M  cc GPS ccc cccc cccc cccc cccc ccccc ccccc ccccc ccccc
%c cc cc ccc ccc cccc cccc cccc cccc ccccc ccccc ccccc ccccc
%f  0.0000000  0.000000000  0.00000000000  0.000000000000000
%f  0.0000000  0.000000000  0.00000000000  0.000000000000000
%i    0    0    0    0      0      0      0      0         0
%i    0    0    0    0      0      0      0      0         0
/* IAC                                ULTRA-RAPID PREDICTION
/* S/V CLOCKS ARE ALIGNED TO GNSS TIME                      
/* G:C1WC2W R:C1PC2P E:C1XC5X C:C2IC6I J:C1CC2S             
/* PCV:IGS20_2290 OL/AL:FES2004  NONE     YN ORB:CoN CLK:CoN
*  2024 04 02  8 15  0.00000000
PC06  -1478.394782  27221.869199 -32042.359201    316.164350
PC07 -17982.061525  32434.662329  19948.835820   -858.579470
PC08  -7671.088241  40306.778031  10157.959238     10.535168
PC09   4493.896003  29627.128665 -28942.506250   -705.235850
PC10  -9360.660325  32416.644366  25298.574838     18.935484
PC11   -400.331760  15875.534424  23011.050540    491.131689
PC12 -19874.005829   6941.558682  18355.360504   -224.565113
PC13  -2602.478962  42144.816549   2818.642169    428.764572
PC14  -8903.964425  22407.327850 -13976.379488    547.356253
PC16  -6524.020675  24062.092604 -33666.098117   -433.125686
PC19     86.000683 -19346.624167  20152.542308   -916.063468
PC20  15269.058694 -22229.539866   7267.093464   -318.349640
PC21 -22615.628348  11766.647143  11332.931656   -961.998242
PC22 -16050.983228  -5199.529913  22224.518148    -53.157426
PC23  15854.245678  17512.905277  14858.264178   -775.515138
PC24  -7043.720947  20995.580866 -17010.524901    946.408317
PC25   7080.567362  26976.881688  -1217.746841    364.599668
PC26 -16004.971009   3331.632472 -22634.114161   -271.417170
PC27  25350.315268  -1434.331536 -11585.675838    293.261560
PC28  25772.129062   9951.965466   3931.484830    224.002777
PC29 -10165.131370 -16739.059489 -19890.262776    262.728711
PC30  11714.422325 -12982.830343 -21753.456069    -48.451347
PC32  22529.466596 -11939.351938 -11345.987506   -594.056422
PC33    -14.949492  19373.623067 -20067.486338   -965.631318
PC34 -10093.147925  13678.472906  22118.975747    403.364710
PC35 -26068.515931  -9131.748904  -4142.324089    396.761738
PC36  -6267.563294 -27148.697852   1489.056686     38.355812
PC37  16175.449880  -2540.473405  22604.675710   -952.236168
PC38 -11539.872543  36921.839478  16978.447635    146.498299
PC39 -11462.066654  21140.545716 -34565.005318     -7.807087
PC40 -25312.329481  26880.697841  20094.081971    -63.562632
PC41  15539.669402   5874.042165 -22366.769380   -916.821189
PC42 -16341.598869  21879.153368  -5606.252658   -444.345575
PC43   9093.637119  16899.297657  20237.821967     66.456443
PC44 -25406.548847   2321.673624  11330.231460    431.519173
PC45 -15738.016265 -17522.286237 -14956.528746    -78.457113
PC46   6474.286671 -21510.092227  16524.656413   -136.615546
PE02  -4118.180704 -23923.148835 -16936.978895    116.148303
PE03 -10680.673063 -14569.989506  23449.018403   -104.443624
PE04  26937.584354   3032.923025 -11879.737335   -363.939728
PE05  11497.627329 -17347.577416  21059.880051   4734.746033
PE07 -27288.652061   9769.003441  -5965.496850   -112.286991
PE08 -26546.231720  -3509.016527  12608.324347   -248.530682
PE09  27346.750037  -9697.062014   5907.022391   -392.397956
PE10  21570.882391   5521.795533 -19507.911048   -613.986383
PE11  16457.604154  -4866.689736 -24124.244506   3097.780204
PE12  22933.570500  13939.832121 -12461.476849   -975.714077
PE13 -16825.611130   4177.233798  23996.750218    -20.814494
PE14  31110.529705  -6129.013694   -979.355399     83.675930
PE15 -22918.522871 -14410.826086  11991.084012    -94.721124
PE18 -24110.737315    315.782713  -3946.461570    504.500566
PE19   8275.966338  15248.980538 -23968.236460   -319.241067
PE21  -9406.739711  28066.301470    223.019891   -587.111340
PE24  18147.164556 -15540.632724  17439.483578   -684.825918
PE25   9654.558731 -27977.977931    158.118769      2.853554
PE26   -564.234128  20451.392171  21391.200832    414.008006
PE27 -18022.052284  15937.575073 -17255.819675   -314.053705
PE30 -15889.593003  -5695.584292 -24331.639786   -156.866812
PE31  15910.288674   5452.271810  24357.596529    -19.781926
PE33  15119.375192  24354.370988   7372.948608      9.859642
PE34 -15525.023582 -24250.781907  -6868.425462   -103.375860
PE36    991.314026 -20028.416511 -21777.881164   -207.679221
PG01 -20000.352740  -6804.388099  15960.394679    177.402789
PG02 -22139.913364 -13108.003326   7626.707025   -460.266398
PG03 -13980.868061  -4377.808887  22008.254484    287.582935
PG04 -24305.881172  -2787.326187  10523.231248    329.278278
PG05   7946.458276  18125.040129 -17842.145394   -167.639133
PG06   -841.110006  18111.949248  19430.208289    340.895971
PG07 -16830.198056   2804.982370 -19968.484094    -98.111893
PG08 -18490.672421  -8058.615888 -17597.108699     96.225574
PG09 -25336.696668   7844.428680  -1973.112599    145.845790
PG10  10593.745194 -23666.419657  -4692.530712     -4.638818
PG11   9768.934636  22538.666369  10185.732534   -624.801758
PG12  13588.139220   6515.384619  21587.259892   -492.829446
PG13   9636.977997  13574.546367 -20949.106210    639.318206
PG14 -13421.650903  21259.054162  -8220.672974    365.999406
PG15  19122.013596   6611.004150 -17798.587341    144.073755
PG16  -2720.329112 -21561.197538 -15288.457731   -326.732882
PG17 -18570.621731  13027.860299  14362.692134    711.223930
PG18  15754.799455  -3806.448404 -21065.191555   -587.098183
PG19  -9587.648217  14715.370180  19621.694478    462.466128
PG20   2183.938548  25455.782236  -7485.259169    381.689318
PG21 -21236.488976 -16722.703707   2566.102608    128.916713
PG22  -9943.119702  24801.209651    333.604098      6.657844
PG23  15093.036347 -15207.243142 -15546.945880    191.192911
PG24  21670.850361  14986.418040   4381.979930   -454.375933
PG25  16300.936362  -5109.764751  19927.821510    492.817747
PG26   3227.340621 -25955.831891  -3430.304916    172.015614
PG27  -6489.869899 -14108.250236 -21864.664028    -16.030524
PG28   2987.342470 -16990.259654  20179.810604   -187.321521
PG29  26324.094851  -3947.839462    -49.143203   -603.125866
PG30  -8687.117071  13437.628753 -21032.441503   -411.165616
PG31  -5795.953910 -21477.634702  13994.173675   -228.029498
PG32  15089.351613 -15032.530562  15947.271475   -617.430700
PJ02 -25730.958016  31891.791098  -5472.027159     -3.580967
PJ03 -26957.934742  21854.828607  29047.592883     -0.123243
PJ04 -33195.772258  26019.609509   2691.302459     50.544415
PR01  16817.446760 -17281.150673   8352.855695     81.353325
PR02   3095.231034 -14003.014577  21129.748322    -22.670383
PR03 -13039.185272  -3389.723948  21725.250345     97.482551
PR04 -21553.227291   8710.357591  10548.964956    230.223828
PR05 -18712.440021  16148.165468  -6330.101399    129.349546
PR07  13634.953244   2757.792413 -21322.081520     79.310438
PR08  21527.019585  -9058.720366 -10153.733266    -74.938983
PR09   3569.295953  25177.008387   1368.739121    178.741892
PR11  10962.365380   -196.036090  23038.544259     29.267406
PR12   5734.030687 -19448.744960  15488.924596     38.517165
PR13  -1991.686853 -25402.786284   1134.297876    -45.882432
PR14  -9812.468004 -16420.484387 -16877.284256     26.306740
PR15 -10925.517564   1831.155105 -22961.471421     80.846529
PR16  -5637.575068  19265.918867 -15711.360115     24.475257
PR17 -21768.774656 -12587.813653  -4176.396065     74.373582
PR18 -21968.612437  -4775.615725  12118.274954    135.127040
PR19 -12588.109904   4284.647416  21765.339425   -271.595242
PR20   7959.428942  14191.381078  19631.937415   -110.668432
PR21  21716.135706  12747.886198   4129.052054    -89.435793
PR22  21500.944739   4462.485218 -12940.041224    115.219984
PR24  -8963.845391 -14313.791537 -19099.625268    -50.194444
PR25  21314.545986  13460.042761   3953.877765    -26.534314
PR26  21291.212834  -8474.675695 -11204.449517    -27.092186
EOF
